{
  "norad_id": 65185,
  "name": "STARLINK-34945",
  "history": [
    {
      "epoch": "2026-03-28T22:04:15.915360",
      "apogee_km": 551.2943647625943,
      "perigee_km": 547.6734358704161,
      "latitude_deg": -60.8924839701704,
      "longitude_deg": 66.78435039985925,
      "semi_major_axis_km": 6927.620900316505,
      "eccentricity": 0.00026134,
      "inclination_deg": 97.6048,
      "raan_deg": 321.6048,
      "arg_perigee_deg": 79.746,
      "mean_anomaly_deg": 280.4061,
      "mean_motion_rev_day": 15.05658885
    },
    {
      "epoch": "2026-03-29T04:27:03.904704",
      "apogee_km": 551.0468010978848,
      "perigee_km": 547.9321402366722,
      "latitude_deg": 80.1470222028591,
      "longitude_deg": 92.30433856020682,
      "semi_major_axis_km": 6927.626470667278,
      "eccentricity": 0.0002248,
      "inclination_deg": 97.6053,
      "raan_deg": 321.8668,
      "arg_perigee_deg": 81.4997,
      "mean_anomaly_deg": 278.6484,
      "mean_motion_rev_day": 15.05657069
    }
  ]
}